{
  "type": "FeatureCollection",
  "features": [
    {
      "type": "Feature",
      "properties": {
        "norad_id": 33939,
        "name": "COSMOS 2251 DEB",
        "group": "cosmos-2251-debris",
        "lat": 22.671560929359384,
        "lon": 78.86657573784521,
        "alt_km": 562.97963999891,
        "timestamp": "2025-12-16T23:36:36.591143+00:00",
        "meta_object_name": "COSMOS 2251 DEB",
        "meta_object_id": "1993-036EU",
        "meta_epoch": "2025-12-16T07:30:01.213056",
        "meta_mean_motion": 15.00163719,
        "meta_eccentricity": 0.00039484,
        "meta_inclination": 74.0069,
        "meta_ra_of_asc_node": 73.3519,
        "meta_arg_of_pericenter": 41.6546,
        "meta_mean_anomaly": 318.4941,
        "meta_ephemeris_type": 0,
        "meta_classification_type": "U",
        "meta_norad_cat_id": 33939,
        "meta_element_set_no": 999,
        "meta_rev_at_epoch": 88806,
        "meta_bstar": 0.0021492611,
        "meta_mean_motion_dot": 0.00026919,
        "meta_mean_motion_ddot": 0,
        "tle_line1": "1 33939U 93036EU  25350.31251404  .00026919  00000+0  21493-2 0  9990",
        "tle_line2": "2 33939  74.0069  73.3519 0003948  41.6546 318.4941 15.00163719888066"
      },
      "geometry": {
        "type": "Point",
        "coordinates": [
          78.86657573784521,
          22.671560929359384
        ]
      }
    },
    {
      "type": "Feature",
      "properties": {
        "norad_id": 33940,
        "name": "COSMOS 2251 DEB",
        "group": "cosmos-2251-debris",
        "lat": -60.31341291970019,
        "lon": -14.448563517466386,
        "alt_km": 696.8612708728197,
        "timestamp": "2025-12-16T23:36:36.591154+00:00",
        "meta_object_name": "COSMOS 2251 DEB",
        "meta_object_id": "1993-036EV",
        "meta_epoch": "2025-12-16T03:33:27.069408",
        "meta_mean_motion": 14.58828798,
        "meta_eccentricity": 0.00111541,
        "meta_inclination": 74.0385,
        "meta_ra_of_asc_node": 137.0063,
        "meta_arg_of_pericenter": 216.9042,
        "meta_mean_anomaly": 321.4048,
        "meta_ephemeris_type": 0,
        "meta_classification_type": "U",
        "meta_norad_cat_id": 33940,
        "meta_element_set_no": 999,
        "meta_rev_at_epoch": 88643,
        "meta_bstar": 0.00076899996,
        "meta_mean_motion_dot": 3.573e-05,
        "meta_mean_motion_ddot": 0,
        "tle_line1": "1 33940U 93036EV  25350.14822997  .00003573  00000+0  76900-3 0  9999",
        "tle_line2": "2 33940  74.0385 137.0063 0011154 216.9042 321.4048 14.58828798886435"
      },
      "geometry": {
        "type": "Point",
        "coordinates": [
          -14.448563517466386,
          -60.31341291970019
        ]
      }
    },
    {
      "type": "Feature",
      "properties": {
        "norad_id": 33942,
        "name": "COSMOS 2251 DEB",
        "group": "cosmos-2251-debris",
        "lat": 52.72491740896009,
        "lon": 64.92202781279393,
        "alt_km": 770.111498110181,
        "timestamp": "2025-12-16T23:36:36.591164+00:00",
        "meta_object_name": "COSMOS 2251 DEB",
        "meta_object_id": "1993-036EX",
        "meta_epoch": "2025-12-16T05:22:05.781792",
        "meta_mean_motion": 14.37993864,
        "meta_eccentricity": 0.0020471,
        "meta_inclination": 74.0366,
        "meta_ra_of_asc_node": 268.4125,
        "meta_arg_of_pericenter": 350.9844,
        "meta_mean_anomaly": 159.7515,
        "meta_ephemeris_type": 0,
        "meta_classification_type": "U",
        "meta_norad_cat_id": 33942,
        "meta_element_set_no": 999,
        "meta_rev_at_epoch": 88184,
        "meta_bstar": 0.00021604029,
        "meta_mean_motion_dot": 6.29e-06,
        "meta_mean_motion_ddot": 0,
        "tle_line1": "1 33942U 93036EX  25350.22367803  .00000629  00000+0  21604-3 0  9990",
        "tle_line2": "2 33942  74.0366 268.4125 0020471 350.9844 159.7515 14.37993864881840"
      },
      "geometry": {
        "type": "Point",
        "coordinates": [
          64.92202781279393,
          52.72491740896009
        ]
      }
    },
    {
      "type": "Feature",
      "properties": {
        "norad_id": 33944,
        "name": "COSMOS 2251 DEB",
        "group": "cosmos-2251-debris",
        "lat": -12.083912729809299,
        "lon": -62.39412776034563,
        "alt_km": 721.4314832548089,
        "timestamp": "2025-12-16T23:36:36.591174+00:00",
        "meta_object_name": "COSMOS 2251 DEB",
        "meta_object_id": "1993-036EZ",
        "meta_epoch": "2025-12-16T07:41:00.807072",
        "meta_mean_motion": 14.37351502,
        "meta_eccentricity": 0.01123278,
        "meta_inclination": 74.0404,
        "meta_ra_of_asc_node": 302.3387,
        "meta_arg_of_pericenter": 41.0199,
        "meta_mean_anomaly": 115.091,
        "meta_ephemeris_type": 0,
        "meta_classification_type": "U",
        "meta_norad_cat_id": 33944,
        "meta_element_set_no": 999,
        "meta_rev_at_epoch": 88079,
        "meta_bstar": 0.00034299274,
        "meta_mean_motion_dot": 1.074e-05,
        "meta_mean_motion_ddot": 0,
        "tle_line1": "1 33944U 93036EZ  25350.32014823  .00001074  00000+0  34299-3 0  9993",
        "tle_line2": "2 33944  74.0404 302.3387 0112327  41.0199 115.0910 14.37351502880790"
      },
      "geometry": {
        "type": "Point",
        "coordinates": [
          -62.39412776034563,
          -12.083912729809299
        ]
      }
    },
    {
      "type": "Feature",
      "properties": {
        "norad_id": 33945,
        "name": "COSMOS 2251 DEB",
        "group": "cosmos-2251-debris",
        "lat": 71.34982416400368,
        "lon": 60.44639235075675,
        "alt_km": 765.3067377490588,
        "timestamp": "2025-12-16T23:36:36.591184+00:00",
        "meta_object_name": "COSMOS 2251 DEB",
        "meta_object_id": "1993-036FA",
        "meta_epoch": "2025-12-16T08:05:10.497984",
        "meta_mean_motion": 14.34603956,
        "meta_eccentricity": 0.00220653,
        "meta_inclination": 74.0299,
        "meta_ra_of_asc_node": 299.6756,
        "meta_arg_of_pericenter": 25.0076,
        "meta_mean_anomaly": 335.2139,
        "meta_ephemeris_type": 0,
        "meta_classification_type": "U",
        "meta_norad_cat_id": 33945,
        "meta_element_set_no": 999,
        "meta_rev_at_epoch": 88067,
        "meta_bstar": 0.00013450263,
        "meta_mean_motion_dot": 3.55e-06,
        "meta_mean_motion_ddot": 0,
        "tle_line1": "1 33945U 93036FA  25350.33692706  .00000355  00000+0  13450-3 0  9994",
        "tle_line2": "2 33945  74.0299 299.6756 0022065  25.0076 335.2139 14.34603956880672"
      },
      "geometry": {
        "type": "Point",
        "coordinates": [
          60.44639235075675,
          71.34982416400368
        ]
      }
    },
    {
      "type": "Feature",
      "properties": {
        "norad_id": 33948,
        "name": "COSMOS 2251 DEB",
        "group": "cosmos-2251-debris",
        "lat": -34.555034498178166,
        "lon": -74.02228779435842,
        "alt_km": 767.8953553601905,
        "timestamp": "2025-12-16T23:36:36.591195+00:00",
        "meta_object_name": "COSMOS 2251 DEB",
        "meta_object_id": "1993-036FD",
        "meta_epoch": "2025-12-16T07:03:12.623040",
        "meta_mean_motion": 14.35633717,
        "meta_eccentricity": 0.00228695,
        "meta_inclination": 74.0358,
        "meta_ra_of_asc_node": 298.6128,
        "meta_arg_of_pericenter": 13.5461,
        "meta_mean_anomaly": 346.63,
        "meta_ephemeris_type": 0,
        "meta_classification_type": "U",
        "meta_norad_cat_id": 33948,
        "meta_element_set_no": 999,
        "meta_rev_at_epoch": 88074,
        "meta_bstar": 0.00019251642,
        "meta_mean_motion_dot": 5.31e-06,
        "meta_mean_motion_ddot": 0,
        "tle_line1": "1 33948U 93036FD  25350.29389610  .00000531  00000+0  19252-3 0  9991",
        "tle_line2": "2 33948  74.0358 298.6128 0022869  13.5461 346.6300 14.35633717880748"
      },
      "geometry": {
        "type": "Point",
        "coordinates": [
          -74.02228779435842,
          -34.555034498178166
        ]
      }
    },
    {
      "type": "Feature",
      "properties": {
        "norad_id": 33971,
        "name": "COSMOS 2251 DEB",
        "group": "cosmos-2251-debris",
        "lat": 73.34547533396842,
        "lon": -7.364947626408691,
        "alt_km": 756.3603089969738,
        "timestamp": "2025-12-16T23:36:36.591204+00:00",
        "meta_object_name": "COSMOS 2251 DEB",
        "meta_object_id": "1993-036FE",
        "meta_epoch": "2025-12-16T03:42:33.375744",
        "meta_mean_motion": 14.39731344,
        "meta_eccentricity": 0.00186701,
        "meta_inclination": 74.0247,
        "meta_ra_of_asc_node": 247.4221,
        "meta_arg_of_pericenter": 347.2739,
        "meta_mean_anomaly": 131.1919,
        "meta_ephemeris_type": 0,
        "meta_classification_type": "U",
        "meta_norad_cat_id": 33971,
        "meta_element_set_no": 999,
        "meta_rev_at_epoch": 88188,
        "meta_bstar": 0.0002411107,
        "meta_mean_motion_dot": 7.3e-06,
        "meta_mean_motion_ddot": 0,
        "tle_line1": "1 33971U 93036FE  25350.15455296  .00000730  00000+0  24111-3 0  9997",
        "tle_line2": "2 33971  74.0247 247.4221 0018670 347.2739 131.1919 14.39731344881885"
      },
      "geometry": {
        "type": "Point",
        "coordinates": [
          -7.364947626408691,
          73.34547533396842
        ]
      }
    }
  ]
}